{
    "links": {
        "self": "http://www.neowsapp.com/rest/v1/neo/3463372?api_key=iIulBulltgU6a56xZRHN4H3l9WmuAYTsLGpBGhQ2"
    },
    "id": "3463372",
    "neo_reference_id": "3463372",
    "name": "(2009 MX)",
    "designation": "2009 MX",
    "nasa_jpl_url": "http://ssd.jpl.nasa.gov/sbdb.cgi?sstr=3463372",
    "absolute_magnitude_h": 23.0,
    "estimated_diameter": {
        "kilometers": {
            "estimated_diameter_min": 0.0667659413,
            "estimated_diameter_max": 0.1492931834
        },
        "meters": {
            "estimated_diameter_min": 66.7659413495,
            "estimated_diameter_max": 149.2931834393
        },
        "miles": {
            "estimated_diameter_min": 0.0414864197,
            "estimated_diameter_max": 0.0927664547
        },
        "feet": {
            "estimated_diameter_min": 219.0483710172,
            "estimated_diameter_max": 489.807047955
        }
    },
    "is_potentially_hazardous_asteroid": false,
    "close_approach_data": [
        {
            "close_approach_date": "2009-06-30",
            "close_approach_date_full": "2009-Jun-30 17:22",
            "epoch_date_close_approach": 1246382520000,
            "relative_velocity": {
                "kilometers_per_second": "11.4422425474",
                "kilometers_per_hour": "41192.0731706944",
                "miles_per_hour": "25595.1523543128"
            },
            "miss_distance": {
                "astronomical": "0.1273293136",
                "lunar": "49.5311029904",
                "kilometers": "19048194.103122032",
                "miles": "11835998.9731147616"
            },
            "orbiting_body": "Earth"
        }
    ],
    "orbital_data": {
        "orbit_id": "9",
        "orbit_determination_date": "2017-04-06 09:00:24",
        "first_observation_date": "2009-06-21",
        "last_observation_date": "2009-07-06",
        "data_arc_in_days": 15,
        "observations_used": 26,
        "orbit_uncertainty": "8",
        "minimum_orbit_intersection": ".110871",
        "jupiter_tisserand_invariant": "4.169",
        "epoch_osculation": "2455007.5",
        "eccentricity": ".3152297018446914",
        "semi_major_axis": "1.642391038967519",
        "inclination": "20.21728965797636",
        "ascending_node_longitude": "98.63133517612572",
        "orbital_period": "768.7998272941124",
        "perihelion_distance": "1.124660601441395",
        "perihelion_argument": "170.8342518099073",
        "aphelion_distance": "2.160121476493643",
        "perihelion_time": "2455006.938695421371",
        "mean_anomaly": ".262837790973041",
        "mean_motion": ".468262332039102",
        "equinox": "J2000",
        "orbit_class": {
            "orbit_class_type": "AMO",
            "orbit_class_description": "Near-Earth asteroid orbits similar to that of 1221 Amor",
            "orbit_class_range": "1.017 AU < q (perihelion) < 1.3 AU"
        }
    },
    "is_sentry_object": false
}